[{"OBJECT_NAME":"STARLINK-31575","OBJECT_ID":"2024-068S","EPOCH":"2026-03-09T07:11:08.114208","MEAN_MOTION":15.27570718,"ECCENTRICITY":0.00014864,"INCLINATION":43.0058,"RA_OF_ASC_NODE":33.2061,"ARG_OF_PERICENTER":252.8034,"MEAN_ANOMALY":107.2655,"EPHEMERIS_TYPE":0,"CLASSIFICATION_TYPE":"U","NORAD_CAT_ID":59471,"ELEMENT_SET_NO":999,"REV_AT_EPOCH":10850,"BSTAR":-5.8305001e-5,"MEAN_MOTION_DOT":-1.866e-5,"MEAN_MOTION_DDOT":0},{"OBJECT_NAME":"HAWK-11B","OBJECT_ID":"2024-247C","EPOCH":"2026-03-09T10:44:06.809856","MEAN_MOTION":15.2884707,"ECCENTRICITY":0.00046902,"INCLINATION":45.0161,"RA_OF_ASC_NODE":115.761,"ARG_OF_PERICENTER":333.0326,"MEAN_ANOMALY":27.0314,"EPHEMERIS_TYPE":0,"CLASSIFICATION_TYPE":"U","NORAD_CAT_ID":62379,"ELEMENT_SET_NO":999,"REV_AT_EPOCH":6773,"BSTAR":0.00032841927,"MEAN_MOTION_DOT":9.093e-5,"MEAN_MOTION_DDOT":0}]
