STARLINK-31575          
1 59471U 24068S   26068.29939947 -.00001866  00000+0 -58305-4 0  9997
2 59471  43.0058  33.2061 0001486 252.8034 107.2655 15.27570718108509
HAWK-11B                
1 62379U 24247C   26068.44730104  .00009093  00000+0  32842-3 0  9993
2 62379  45.0161 115.7610 0004690 333.0326  27.0314 15.28847070 67738
